NORAD_CAT_ID,OBJECT_NAME,OBJECT_TYPE,EPOCH,MEAN_MOTION,ECCENTRICITY,INCLINATION,RA_OF_ASC_NODE,ARG_OF_PERICENTER,MEAN_ANOMALY,BSTAR,MEAN_MOTION_DOT,MEAN_MOTION_DDOT,TLE_LINE0,TLE_LINE1,TLE_LINE2,SEMIMAJOR_AXIS,PERIOD,APOGEE,PERIGEE,DECAYED
51972.0,STARLINK-3671,PAYLOAD,2024-08-21 17:49:51,15.06397391,0.0001268,53.0549,47.0274,96.8721,263.2412,6.0352e-05,6.18e-06,0.0,0 STARLINK-3671,1 51972U 22025S   24234.74295777  .00000618  00000-0  60352-4 0  9993,2 51972  53.0549  47.0274 0001268  96.8721 263.2412 15.06397391135773,6925.357,95.592,548.1,546.343,0.0
